IRIDIUM 166             
1 43570U 18061B   24263.42475333  .00000606  00000+0  20937-3 0  9998
2 43570  86.3983 322.4419 0002109 100.5517 259.5916 14.34218306322279
IRIDIUM 158             
1 43571U 18061C   24262.55579565  .00000641  00000+0  22179-3 0  9993
2 43571  86.3986 322.8144 0002171  99.9333 260.2108 14.34226363322115
IRIDIUM 165             
1 43572U 18061D   24263.55793888  .00000129  00000+0  38888-4 0  9997
2 43572  86.3984 322.4293 0002236  95.9370 264.2081 14.34208535322287
IRIDIUM 155             
1 43573U 18061E   24263.45012419  .00000635  00000+0  21959-3 0  9993
2 43573  86.3983 322.3756 0002084  98.1242 262.0190 14.34216772322238
IRIDIUM 154             
1 43574U 18061F   24263.43109500  .00000663  00000+0  22958-3 0  9991
2 43574  86.3985 322.4858 0002204  90.2618 269.8830 14.34217257322289
IRIDIUM 163             
1 43575U 18061G   24263.55160387  .00000642  00000+0  22209-3 0  9991
2 43575  86.3983 322.3708 0002050  93.4853 266.6577 14.34219405322275
IRIDIUM 156             
1 43576U 18061H   24262.61922308  .00000660  00000+0  22854-3 0  9993
2 43576  86.3985 322.7670 0002241 102.0351 258.1096 14.34225595322136
IRIDIUM 164             
1 43577U 18061J   24263.57697529  .00000664  00000+0  23002-3 0  9994
2 43577  86.3984 322.3971 0002379  92.2534 267.8935 14.34219759322315
